{
  "type": "FeatureCollection",
  "features": [
    {
      "type": "Feature",
      "properties": {
        "norad_id": 33633,
        "name": "FENGYUN 1C DEB",
        "group": "fengyun-1c-debris",
        "lat": 39.33356869113724,
        "lon": 68.82119581115168,
        "alt_km": 857.4901796182239,
        "timestamp": "2025-12-08T03:50:07.283742+00:00",
        "meta_object_name": "FENGYUN 1C DEB",
        "meta_object_id": "1999-025DDS",
        "meta_epoch": "2025-12-04T05:02:36.311136",
        "meta_mean_motion": 14.19195748,
        "meta_eccentricity": 0.0084138,
        "meta_inclination": 99.0589,
        "meta_ra_of_asc_node": 72.2967,
        "meta_arg_of_pericenter": 174.4266,
        "meta_mean_anomaly": 217.7166,
        "meta_ephemeris_type": 0,
        "meta_classification_type": "U",
        "meta_norad_cat_id": 33633,
        "meta_element_set_no": 999,
        "meta_rev_at_epoch": 90590,
        "meta_bstar": 0.0055559,
        "meta_mean_motion_dot": 0.00012029,
        "meta_mean_motion_ddot": 0,
        "tle_line1": "1 33633U 99025DDS 25338.21014249  .00012029  00000+0  55559-2 0  9991",
        "tle_line2": "2 33633  99.0589  72.2967 0084138 174.4266 217.7166 14.19195748905909"
      },
      "geometry": {
        "type": "Point",
        "coordinates": [
          68.82119581115168,
          39.33356869113724
        ]
      }
    },
    {
      "type": "Feature",
      "properties": {
        "norad_id": 33637,
        "name": "FENGYUN 1C DEB",
        "group": "fengyun-1c-debris",
        "lat": -5.503166858324804,
        "lon": 28.027724882142817,
        "alt_km": 831.6150629432523,
        "timestamp": "2025-12-08T03:50:07.283752+00:00",
        "meta_object_name": "FENGYUN 1C DEB",
        "meta_object_id": "1999-025DDW",
        "meta_epoch": "2025-12-02T20:49:29.953920",
        "meta_mean_motion": 14.36621291,
        "meta_eccentricity": 0.00830408,
        "meta_inclination": 98.4948,
        "meta_ra_of_asc_node": 21.982,
        "meta_arg_of_pericenter": 180.571,
        "meta_mean_anomaly": 179.5395,
        "meta_ephemeris_type": 0,
        "meta_classification_type": "U",
        "meta_norad_cat_id": 33637,
        "meta_element_set_no": 999,
        "meta_rev_at_epoch": 64696,
        "meta_bstar": 0.0016160218,
        "meta_mean_motion_dot": 4.904e-05,
        "meta_mean_motion_ddot": 0,
        "tle_line1": "1 33637U 99025DDW 25336.86770780  .00004904  00000+0  16160-2 0  9991",
        "tle_line2": "2 33637  98.4948  21.9820 0083040 180.5710 179.5395 14.36621291646960"
      },
      "geometry": {
        "type": "Point",
        "coordinates": [
          28.027724882142817,
          -5.503166858324804
        ]
      }
    },
    {
      "type": "Feature",
      "properties": {
        "norad_id": 33638,
        "name": "FENGYUN 1C DEB",
        "group": "fengyun-1c-debris",
        "lat": 24.99512700775835,
        "lon": 57.3791520511652,
        "alt_km": 1125.8924620447651,
        "timestamp": "2025-12-08T03:50:07.283762+00:00",
        "meta_object_name": "FENGYUN 1C DEB",
        "meta_object_id": "1999-025DDX",
        "meta_epoch": "2025-12-06T22:59:54.556512",
        "meta_mean_motion": 13.6928665,
        "meta_eccentricity": 0.02653124,
        "meta_inclination": 98.4647,
        "meta_ra_of_asc_node": 232.3409,
        "meta_arg_of_pericenter": 288.5007,
        "meta_mean_anomaly": 68.7482,
        "meta_ephemeris_type": 0,
        "meta_classification_type": "U",
        "meta_norad_cat_id": 33638,
        "meta_element_set_no": 999,
        "meta_rev_at_epoch": 60836,
        "meta_bstar": 0.0023450571,
        "meta_mean_motion_dot": 2.567e-05,
        "meta_mean_motion_ddot": 0,
        "tle_line1": "1 33638U 99025DDX 25340.95827033  .00002567  00000+0  23451-2 0  9995",
        "tle_line2": "2 33638  98.4647 232.3409 0265312 288.5007  68.7482 13.69286650608369"
      },
      "geometry": {
        "type": "Point",
        "coordinates": [
          57.3791520511652,
          24.99512700775835
        ]
      }
    },
    {
      "type": "Feature",
      "properties": {
        "norad_id": 33639,
        "name": "FENGYUN 1C DEB",
        "group": "fengyun-1c-debris",
        "lat": 7.7690449167454405,
        "lon": 71.85734362230909,
        "alt_km": 744.2786116329225,
        "timestamp": "2025-12-08T03:50:07.283772+00:00",
        "meta_object_name": "FENGYUN 1C DEB",
        "meta_object_id": "1999-025DDY",
        "meta_epoch": "2025-12-03T23:45:48.189312",
        "meta_mean_motion": 14.40248408,
        "meta_eccentricity": 0.00493059,
        "meta_inclination": 98.7136,
        "meta_ra_of_asc_node": 68.813,
        "meta_arg_of_pericenter": 315.1865,
        "meta_mean_anomaly": 44.5345,
        "meta_ephemeris_type": 0,
        "meta_classification_type": "U",
        "meta_norad_cat_id": 33639,
        "meta_element_set_no": 999,
        "meta_rev_at_epoch": 60456,
        "meta_bstar": 0.0043899516,
        "meta_mean_motion_dot": 0.00014079,
        "meta_mean_motion_ddot": 0,
        "tle_line1": "1 33639U 99025DDY 25337.99014108  .00014079  00000+0  43900-2 0  9999",
        "tle_line2": "2 33639  98.7136  68.8130 0049305 315.1865  44.5345 14.40248408604567"
      },
      "geometry": {
        "type": "Point",
        "coordinates": [
          71.85734362230909,
          7.7690449167454405
        ]
      }
    },
    {
      "type": "Feature",
      "properties": {
        "norad_id": 33640,
        "name": "FENGYUN 1C DEB",
        "group": "fengyun-1c-debris",
        "lat": 73.76135402694791,
        "lon": 137.01618445821802,
        "alt_km": 709.4043849846585,
        "timestamp": "2025-12-08T03:50:07.283782+00:00",
        "meta_object_name": "FENGYUN 1C DEB",
        "meta_object_id": "1999-025DDZ",
        "meta_epoch": "2025-12-03T07:05:28.612320",
        "meta_mean_motion": 14.45839064,
        "meta_eccentricity": 0.0090224,
        "meta_inclination": 98.8397,
        "meta_ra_of_asc_node": 279.6527,
        "meta_arg_of_pericenter": 187.9822,
        "meta_mean_anomaly": 171.9938,
        "meta_ephemeris_type": 0,
        "meta_classification_type": "U",
        "meta_norad_cat_id": 33640,
        "meta_element_set_no": 999,
        "meta_rev_at_epoch": 92206,
        "meta_bstar": 0.00071385,
        "meta_mean_motion_dot": 2.614e-05,
        "meta_mean_motion_ddot": 0,
        "tle_line1": "1 33640U 99025DDZ 25337.29547005  .00002614  00000+0  71385-3 0  9992",
        "tle_line2": "2 33640  98.8397 279.6527 0090224 187.9822 171.9938 14.45839064922065"
      },
      "geometry": {
        "type": "Point",
        "coordinates": [
          137.01618445821802,
          73.76135402694791
        ]
      }
    },
    {
      "type": "Feature",
      "properties": {
        "norad_id": 33648,
        "name": "FENGYUN 1C DEB",
        "group": "fengyun-1c-debris",
        "lat": -52.41500687718845,
        "lon": 149.4752413541827,
        "alt_km": 825.6001017875951,
        "timestamp": "2025-12-08T03:50:07.283792+00:00",
        "meta_object_name": "FENGYUN 1C DEB",
        "meta_object_id": "1999-025DEH",
        "meta_epoch": "2025-12-07T06:19:28.985088",
        "meta_mean_motion": 14.11771624,
        "meta_eccentricity": 0.00686156,
        "meta_inclination": 98.7191,
        "meta_ra_of_asc_node": 340.1048,
        "meta_arg_of_pericenter": 189.7448,
        "meta_mean_anomaly": 170.2398,
        "meta_ephemeris_type": 0,
        "meta_classification_type": "U",
        "meta_norad_cat_id": 33648,
        "meta_element_set_no": 999,
        "meta_rev_at_epoch": 64299,
        "meta_bstar": 0.00018339331,
        "meta_mean_motion_dot": 2.99e-06,
        "meta_mean_motion_ddot": 0,
        "tle_line1": "1 33648U 99025DEH 25341.26352992  .00000299  00000+0  18339-3 0  9998",
        "tle_line2": "2 33648  98.7191 340.1048 0068615 189.7448 170.2398 14.11771624642992"
      },
      "geometry": {
        "type": "Point",
        "coordinates": [
          149.4752413541827,
          -52.41500687718845
        ]
      }
    },
    {
      "type": "Feature",
      "properties": {
        "norad_id": 33650,
        "name": "FENGYUN 1C DEB",
        "group": "fengyun-1c-debris",
        "lat": 22.6829449492273,
        "lon": 143.59424084223676,
        "alt_km": 889.4729326257229,
        "timestamp": "2025-12-08T03:50:07.283802+00:00",
        "meta_object_name": "FENGYUN 1C DEB",
        "meta_object_id": "1999-025DEK",
        "meta_epoch": "2025-11-29T05:22:43.300128",
        "meta_mean_motion": 13.89153147,
        "meta_eccentricity": 0.01505018,
        "meta_inclination": 98.9878,
        "meta_ra_of_asc_node": 138.7642,
        "meta_arg_of_pericenter": 115.9177,
        "meta_mean_anomaly": 245.7581,
        "meta_ephemeris_type": 0,
        "meta_classification_type": "U",
        "meta_norad_cat_id": 33650,
        "meta_element_set_no": 999,
        "meta_rev_at_epoch": 68621,
        "meta_bstar": 0.00077422425,
        "meta_mean_motion_dot": 9.89e-06,
        "meta_mean_motion_ddot": 0,
        "tle_line1": "1 33650U 99025DEK 25333.22411227  .00000989  00000+0  77422-3 0  9999",
        "tle_line2": "2 33650  98.9878 138.7642 0150501 115.9177 245.7581 13.89153147686219"
      },
      "geometry": {
        "type": "Point",
        "coordinates": [
          143.59424084223676,
          22.6829449492273
        ]
      }
    }
  ]
}